SNAP-3 JIMI             
1 40975U 15058M   26068.63164788  .00007303  00000+0  51665-3 0  9997
2 40975  64.7662 174.4840 0105534  96.5110 264.8035 15.01135599 99270
STARLINK-4173           
1 53285U 22086AV  26068.59278382 -.00000174  00000+0  71780-5 0  9997
2 53285  53.2169 184.5569 0001227  90.3635 269.7498 15.08843600201178
